[{"OBJECT_NAME":"TIANMU-1 12","OBJECT_ID":"2023-205B","EPOCH":"2026-03-09T23:16:21.235872","MEAN_MOTION":15.25812065,"ECCENTRICITY":0.00067383,"INCLINATION":97.3538,"RA_OF_ASC_NODE":91.8946,"ARG_OF_PERICENTER":353.283,"MEAN_ANOMALY":6.8317,"EPHEMERIS_TYPE":0,"CLASSIFICATION_TYPE":"U","NORAD_CAT_ID":58646,"ELEMENT_SET_NO":999,"REV_AT_EPOCH":12237,"BSTAR":0.00029269543,"MEAN_MOTION_DOT":7.417e-5,"MEAN_MOTION_DDOT":0},{"OBJECT_NAME":"AEROCUBE 18B","OBJECT_ID":"2025-052N","EPOCH":"2026-03-09T16:50:02.994720","MEAN_MOTION":15.23094619,"ECCENTRICITY":0.00062515,"INCLINATION":97.4088,"RA_OF_ASC_NODE":323.4677,"ARG_OF_PERICENTER":110.4629,"MEAN_ANOMALY":249.728,"EPHEMERIS_TYPE":0,"CLASSIFICATION_TYPE":"U","NORAD_CAT_ID":63222,"ELEMENT_SET_NO":999,"REV_AT_EPOCH":5474,"BSTAR":0.00034527206,"MEAN_MOTION_DOT":8.078e-5,"MEAN_MOTION_DDOT":0}]
